{
  "norad_id": 39237,
  "name": "AMOS-4",
  "history": [
    {
      "epoch": "2026-03-28T21:56:24.431424Z",
      "apogee_km": 35800.745305071956,
      "perigee_km": 35772.326315597784,
      "latitude_deg": 0.02173946533027094,
      "longitude_deg": 64.9843096790101,
      "height_km": 35797.77133942001,
      "semi_major_axis_km": 42164.67281033487,
      "eccentricity": 0.000337,
      "inclination_deg": 0.0095,
      "raan_deg": 178.0304,
      "arg_perigee_deg": 187.8342,
      "mean_anomaly_deg": 214.5479,
      "mean_motion_rev_day": 1.00271996
    },
    {
      "epoch": "2026-03-29T03:04:22.092672Z",
      "apogee_km": 35800.71722201941,
      "perigee_km": 35772.331971832355,
      "latitude_deg": 0.02969114972985137,
      "longitude_deg": 64.97049574380897,
      "height_km": 35780.7451429367,
      "semi_major_axis_km": 42164.661596925886,
      "eccentricity": 0.0003366,
      "inclination_deg": 0.0097,
      "raan_deg": 177.06,
      "arg_perigee_deg": 188.9426,
      "mean_anomaly_deg": 291.6112,
      "mean_motion_rev_day": 1.00272036
    },
    {
      "epoch": "2026-03-30T03:01:58.106208Z",
      "apogee_km": 35800.65044983197,
      "perigee_km": 35772.290534832624,
      "latitude_deg": 0.028624226536404493,
      "longitude_deg": 64.97093439570075,
      "height_km": 35780.71190048947,
      "semi_major_axis_km": 42164.607492332296,
      "eccentricity": 0.0003363,
      "inclination_deg": 0.0104,
      "raan_deg": 164.9417,
      "arg_perigee_deg": 201.5113,
      "mean_anomaly_deg": 291.5466,
      "mean_motion_rev_day": 1.00272229
    },
    {
      "epoch": "2026-03-30T09:52:33.723552Z",
      "apogee_km": 35800.60715079066,
      "perigee_km": 35772.224503700534,
      "latitude_deg": -0.026788450077855047,
      "longitude_deg": 65.0224736596277,
      "height_km": 35773.74829231299,
      "semi_major_axis_km": 42164.5528272456,
      "eccentricity": 0.00033657,
      "inclination_deg": 0.016,
      "raan_deg": 127.5057,
      "arg_perigee_deg": 242.0268,
      "mean_anomaly_deg": 31.3924,
      "mean_motion_rev_day": 1.00272424
    },
    {
      "epoch": "2026-03-30T20:33:38.721888Z",
      "apogee_km": 35800.61549067452,
      "perigee_km": 35772.17635650822,
      "latitude_deg": 0.021835917128273118,
      "longitude_deg": 64.9944524953244,
      "height_km": 35799.84044735771,
      "semi_major_axis_km": 42164.532923591374,
      "eccentricity": 0.00033724,
      "inclination_deg": 0.0175,
      "raan_deg": 128.4216,
      "arg_perigee_deg": 240.8428,
      "mean_anomaly_deg": 192.3718,
      "mean_motion_rev_day": 1.00272495
    },
    {
      "epoch": "2026-03-31T20:49:38.824608Z",
      "apogee_km": 35800.52986600418,
      "perigee_km": 35772.17003208226,
      "latitude_deg": 0.023228464277651382,
      "longitude_deg": 64.9923679626564,
      "height_km": 35799.43084354543,
      "semi_major_axis_km": 42164.48694904322,
      "eccentricity": 0.0003363,
      "inclination_deg": 0.0199,
      "raan_deg": 128.3457,
      "arg_perigee_deg": 240.7992,
      "mean_anomaly_deg": 197.4924,
      "mean_motion_rev_day": 1.00272659
    },
    {
      "epoch": "2026-04-01T17:59:38.685120Z",
      "apogee_km": 35800.40936212234,
      "perigee_km": 35772.21821032666,
      "latitude_deg": 0.00229868902714138,
      "longitude_deg": 65.02110299665816,
      "height_km": 35798.760408345704,
      "semi_major_axis_km": 42164.4507862245,
      "eccentricity": 0.0003343,
      "inclination_deg": 0.0224,
      "raan_deg": 129.8956,
      "arg_perigee_deg": 239.0402,
      "mean_anomaly_deg": 156.0744,
      "mean_motion_rev_day": 1.00272788
    },
    {
      "epoch": "2026-04-02T18:18:43.805664Z",
      "apogee_km": 35800.33161395058,
      "perigee_km": 35772.199524556374,
      "latitude_deg": 0.004567219278225559,
      "longitude_deg": 65.01910491098002,
      "height_km": 35799.1884525056,
      "semi_major_axis_km": 42164.40256925348,
      "eccentricity": 0.0003336,
      "inclination_deg": 0.025,
      "raan_deg": 129.5067,
      "arg_perigee_deg": 239.4754,
      "mean_anomaly_deg": 161.8028,
      "mean_motion_rev_day": 1.0027296
    },
    {
      "epoch": "2026-04-02T21:44:01.616928Z",
      "apogee_km": 35800.332897017935,
      "perigee_km": 35772.183103627816,
      "latitude_deg": 0.027356043722588597,
      "longitude_deg": 64.98615477890822,
      "height_km": 35797.57208565301,
      "semi_major_axis_km": 42164.395000322875,
      "eccentricity": 0.00033381,
      "inclination_deg": 0.0249,
      "raan_deg": 129.5454,
      "arg_perigee_deg": 239.38,
      "mean_anomaly_deg": 213.3248,
      "mean_motion_rev_day": 1.00272987
    },
    {
      "epoch": "2026-04-03T20:53:38.549184Z",
      "apogee_km": 35800.28283026769,
      "perigee_km": 35772.14234335345,
      "latitude_deg": 0.023868639191267183,
      "longitude_deg": 64.99563882603589,
      "height_km": 35798.84303776804,
      "semi_major_axis_km": 42164.349586810575,
      "eccentricity": 0.0003337,
      "inclination_deg": 0.0278,
      "raan_deg": 130.383,
      "arg_perigee_deg": 238.5097,
      "mean_anomaly_deg": 201.7176,
      "mean_motion_rev_day": 1.00273149
    },
    {
      "epoch": "2026-04-04T02:49:36.732000Z",
      "apogee_km": 35800.27597098565,
      "perigee_km": 35772.1262155878,
      "latitude_deg": 0.022848926451161104,
      "longitude_deg": 64.9747089256821,
      "height_km": 35780.630658997856,
      "semi_major_axis_km": 42164.33809328672,
      "eccentricity": 0.00033381,
      "inclination_deg": 0.028,
      "raan_deg": 130.4209,
      "arg_perigee_deg": 238.4051,
      "mean_anomaly_deg": 291.0217,
      "mean_motion_rev_day": 1.0027319
    },
    {
      "epoch": "2026-04-05T14:15:14.921280Z",
      "apogee_km": 35800.15001002507,
      "perigee_km": 35773.684692011106,
      "latitude_deg": -0.02240906513722307,
      "longitude_deg": 65.03358613714354,
      "height_km": 35789.78314426151,
      "semi_major_axis_km": 42165.05435101809,
      "eccentricity": 0.00031383,
      "inclination_deg": 0.0304,
      "raan_deg": 123.2709,
      "arg_perigee_deg": 244.6663,
      "mean_anomaly_deg": 104.7652,
      "mean_motion_rev_day": 1.00270635
    },
    {
      "epoch": "2026-04-05T18:11:19.891104Z",
      "apogee_km": 35800.24434265055,
      "perigee_km": 35773.57073547514,
      "latitude_deg": 0.005426057381916026,
      "longitude_deg": 65.00798914152739,
      "height_km": 35799.28172083559,
      "semi_major_axis_km": 42165.04453906285,
      "eccentricity": 0.0003163,
      "inclination_deg": 0.031,
      "raan_deg": 122.0516,
      "arg_perigee_deg": 245.6362,
      "mean_anomaly_deg": 164.1965,
      "mean_motion_rev_day": 1.0027067
    },
    {
      "epoch": "2026-04-06T03:55:38.706816Z",
      "apogee_km": 35800.2514177361,
      "perigee_km": 35773.523851920574,
      "latitude_deg": 0.010680398202675348,
      "longitude_deg": 64.96818711231414,
      "height_km": 35777.66546085121,
      "semi_major_axis_km": 42165.02463482834,
      "eccentricity": 0.00031694,
      "inclination_deg": 0.0308,
      "raan_deg": 119.716,
      "arg_perigee_deg": 248.0705,
      "mean_anomaly_deg": 310.5745,
      "mean_motion_rev_day": 1.00270741
    }
  ]
}